STARLINK-1526
1 16029C 20055C   21326.15139940 -.00000695  00000-0 -46563-4 0  3263
2 16029  53.0543 328.0722 0001616  60.6783  58.1281 15.06392890    10
